ONEWEB-0522             
1 54140U 22138AD  26199.83389011  .00000113  00000+0  24882-3 0  9991
2 54140  87.9196 298.6584 0001962 105.1202 255.0148 13.19724011180987
ONEWEB-0523             
1 54141U 22138AE  26199.92292136 -.00000172  00000+0 -45595-3 0  9994
2 54141  87.9185 268.1172 0002198  76.9580 283.1798 13.20770907183496
ONEWEB-0524             
1 54142U 22138AF  26199.83706811 -.00000112  00000+0 -30639-3 0  9992
2 54142  87.9184 268.1310 0002850  88.3566 271.7894 13.20771216183489
ONEWEB-0525             
1 54143U 22138AG  26199.77703099  .00000037  00000+0  60271-4 0  9991
2 54143  87.9197 298.6767 0002272 109.2661 250.8718 13.19723642180999
ONEWEB-0526             
1 54144U 22138AH  26199.81020360 -.00000023  00000+0 -90154-4 0  9990
2 54144  87.9195 298.6708 0002162 102.9628 257.1746 13.19724394180978
ONEWEB-0529             
1 54145U 22138AJ  26199.81336669  .00000011  00000+0 -51046-5 0  9997
2 54145  87.9185 298.6768 0002154 107.4379 252.6989 13.19725951180999
ONEWEB-0531             
1 54146U 22138AK  26199.89934930 -.00000196  00000+0 -51439-3 0  9990
2 54146  87.9184 268.1161 0002430  78.0598 282.0807 13.20770918183490
ONEWEB-0535             
1 54147U 22138AL  26199.77070311 -.00000155  00000+0 -41870-3 0  9995
2 54147  87.9195 298.6719 0001937  92.9596 267.1758 13.19725004181002
ONEWEB-0536             
1 54148U 22138AM  26199.73436900 -.00000245  00000+0 -63511-3 0  9998
2 54148  87.9170 268.1676 0002640  77.3043 282.8385 13.20771189183465
ONEWEB-0527             
1 54642U 22166A   26199.81773553  .00000059  00000+0  11158-3 0  9996
2 54642  87.9230 237.7013 0002108  97.0331 263.1043 13.21827600175719
ONEWEB-0528             
1 54643U 22166B   26199.81858183  .00000038  00000+0  60491-4 0  9992
2 54643  87.9230 237.7038 0002232 100.0780 260.0605 13.21825992175721
ONEWEB-0539             
1 54644U 22166C   26199.55363922 -.00000062  00000+0 -18072-3 0  9992
2 54644  87.9237 237.7301 0001857  97.2354 262.8991 13.21824104175685
ONEWEB-0540             
1 54645U 22166D   26199.56050942 -.00000095  00000+0 -26138-3 0  9997
2 54645  87.9230 237.7573 0001967  94.4545 265.6814 13.21824429175677
ONEWEB-0542             
1 54646U 22166E   26199.86652808 -.00000008  00000+0 -50727-4 0  9996
2 54646  87.9243 237.6671 0001769  98.2014 261.9321 13.21825598175729
ONEWEB-0545             
1 54647U 22166F   26199.52841838  .00000050  00000+0  90385-4 0  9992
2 54647  87.9230 237.7440 0001495  91.2385 268.8920 13.21826107175640
ONEWEB-0580             
1 54648U 22166G   26199.50317084 -.00000031  00000+0 -10555-3 0  9993
2 54648  87.9231 237.7487 0001758  86.9940 273.1396 13.21823540175681
ONEWEB-0582             
1 54649U 22166H   26199.16673544 -.00000073  00000+0 -20707-3 0  9998
2 54649  87.9233 237.8083 0001595  92.5097 267.6220 13.21824179175618
ONEWEB-0583             
1 54650U 22166J   26199.55701485 -.00000032  00000+0 -10819-3 0  9997
2 54650  87.9232 237.7539 0001945  94.6567 265.4790 13.21825783175674
ONEWEB-0584             
1 54651U 22166K   26199.12301251  .00000050  00000+0  90715-4 0  9990
2 54651  87.9229 237.8249 0002003  93.0969 267.0394 13.21825627175603
ONEWEB-0585             
1 54652U 22166L   26199.82782398  .00000038  00000+0  61321-4 0  9990
2 54652  87.9234 237.6726 0002257  96.6393 263.4998 13.21823880175709
ONEWEB-0586             
1 54653U 22166M   26199.84128591  .00000005  00000+0 -18287-4 0  9990
2 54653  87.9230 237.6956 0001915  97.6025 262.5326 13.21823699175707
ONEWEB-0587             
1 54654U 22166N   26199.85139203  .00000048  00000+0  83673-4 0  9991
2 54654  87.9238 237.6700 0002374  97.8299 262.3105 13.21825737175863
ONEWEB-0589             
1 54655U 22166P   26199.83793380  .00000022  00000+0  21254-4 0  9991
2 54655  87.9229 237.6809 0001340  81.2447 278.8839 13.21825818175729
ONEWEB-0590             
1 54656U 22166Q   26199.86300997 -.00000032  00000+0 -10828-3 0  9990
2 54656  87.9240 237.6692 0002216  84.6405 275.4981 13.21826140175716
ONEWEB-0591             
1 54657U 22166R   26199.11795176  .00000090  00000+0  18572-3 0  9992
2 54657  87.9230 237.8292 0002062  92.8463 267.2907 13.21824221175645
ONEWEB-0592             
1 54658U 22166S   26199.49981372 -.00000062  00000+0 -18142-3 0  9993
2 54658  87.9241 237.7347 0002074  95.8114 264.3257 13.21823158175573
ONEWEB-0593             
1 54659U 22166T   26199.82446854 -.00000032  00000+0 -10878-3 0  9997
2 54659  87.9232 237.6791 0001972  97.0981 263.0377 13.21825843175727
ONEWEB-0594             
1 54660U 22166U   26199.54186733  .00000020  00000+0  17779-4 0  9998
2 54660  87.9229 237.7511 0002268 100.2748 259.8642 13.21824491175707
ONEWEB-0595             
1 54661U 22166V   26199.66971895 -.00000050  00000+0 -15264-3 0  9994
2 54661  87.9238 237.7091 0002347  94.7014 265.4389 13.21825561175690
ONEWEB-0596             
1 54662U 22166W   26199.87156686  .00002093  00000+0  50354-2 0  9996
2 54662  87.9226 237.6777 0002248  97.1751 262.9639 13.21812211175725
