OBJECT_NAME,OBJECT_ID,EPOCH,MEAN_MOTION,ECCENTRICITY,INCLINATION,RA_OF_ASC_NODE,ARG_OF_PERICENTER,MEAN_ANOMALY,EPHEMERIS_TYPE,CLASSIFICATION_TYPE,NORAD_CAT_ID,ELEMENT_SET_NO,REV_AT_EPOCH,BSTAR,MEAN_MOTION_DOT,MEAN_MOTION_DDOT
ONEWEB-0522,2022-138AD,2026-07-18T20:00:48.105504,13.19724011,.00019626,87.9196,298.6584,105.1202,255.0148,0,U,54140,999,18098,.2488223E-3,.113E-5,0
ONEWEB-0523,2022-138AE,2026-07-18T22:09:00.405504,13.20770907,.00021981,87.9185,268.1172,76.9580,283.1798,0,U,54141,999,18349,-.45594596E-3,-.172E-5,0
ONEWEB-0524,2022-138AF,2026-07-18T20:05:22.684704,13.20771216,.00028504,87.9184,268.1310,88.3566,271.7894,0,U,54142,999,18348,-.30639157E-3,-.112E-5,0
ONEWEB-0525,2022-138AG,2026-07-18T18:38:55.477536,13.19723642,.00022729,87.9197,298.6767,109.2661,250.8718,0,U,54143,999,18099,.60271469E-4,.37E-6,0
ONEWEB-0526,2022-138AH,2026-07-18T19:26:41.591040,13.19724394,.0002162,87.9195,298.6708,102.9628,257.1746,0,U,54144,999,18097,-.90153669E-4,-.23E-6,0
ONEWEB-0529,2022-138AJ,2026-07-18T19:31:14.882016,13.19725951,.00021545,87.9185,298.6768,107.4379,252.6989,0,U,54145,999,18099,-.5104631E-5,.11E-6,0
ONEWEB-0531,2022-138AK,2026-07-18T21:35:03.779520,13.20770918,.00024307,87.9184,268.1161,78.0598,282.0807,0,U,54146,999,18349,-.51439014E-3,-.196E-5,0
ONEWEB-0535,2022-138AL,2026-07-18T18:29:48.748704,13.19725004,.00019372,87.9195,298.6719,92.9596,267.1758,0,U,54147,999,18100,-.41870209E-3,-.155E-5,0
ONEWEB-0536,2022-138AM,2026-07-18T17:37:29.481600,13.20771189,.00026404,87.9170,268.1676,77.3043,282.8385,0,U,54148,999,18346,-.6351141E-3,-.245E-5,0
ONEWEB-0527,2022-166A,2026-07-18T19:37:32.349792,13.21827600,.00021082,87.9230,237.7013,97.0331,263.1043,0,U,54642,999,17571,.11158114E-3,.59E-6,0
ONEWEB-0528,2022-166B,2026-07-18T19:38:45.470112,13.21825992,.00022323,87.9230,237.7038,100.0780,260.0605,0,U,54643,999,17572,.60491355E-4,.38E-6,0
ONEWEB-0539,2022-166C,2026-07-18T13:17:14.428608,13.21824104,.0001857,87.9237,237.7301,97.2354,262.8991,0,U,54644,999,17568,-.18072E-3,-.62E-6,0
ONEWEB-0540,2022-166D,2026-07-18T13:27:08.013888,13.21824429,.0001967,87.9230,237.7573,94.4545,265.6814,0,U,54645,999,17567,-.26138E-3,-.95E-6,0
ONEWEB-0542,2022-166E,2026-07-18T20:47:48.026112,13.21825598,.00017695,87.9243,237.6671,98.2014,261.9321,0,U,54646,999,17572,-.50726736E-4,-.8E-7,0
ONEWEB-0545,2022-166F,2026-07-18T12:40:55.348032,13.21826107,.00014959,87.9230,237.7440,91.2385,268.8920,0,U,54647,999,17564,.90384741E-4,.5E-6,0
ONEWEB-0580,2022-166G,2026-07-18T12:04:33.960576,13.21823540,.00017589,87.9231,237.7487,86.9940,273.1396,0,U,54648,999,17568,-.10555258E-3,-.31E-6,0
ONEWEB-0582,2022-166H,2026-07-18T04:00:05.942016,13.21824179,.00015954,87.9233,237.8083,92.5097,267.6220,0,U,54649,999,17561,-.20706702E-3,-.73E-6,0
ONEWEB-0583,2022-166J,2026-07-18T13:22:06.083040,13.21825783,.0001945,87.9232,237.7539,94.6567,265.4790,0,U,54650,999,17567,-.10819E-3,-.32E-6,0
ONEWEB-0584,2022-166K,2026-07-18T02:57:08.280864,13.21825627,.0002003,87.9229,237.8249,93.0969,267.0394,0,U,54651,999,17560,.90714936E-4,.5E-6,0
ONEWEB-0585,2022-166L,2026-07-18T19:52:03.991872,13.21823880,.00022575,87.9234,237.6726,96.6393,263.4998,0,U,54652,999,17570,.61320907E-4,.38E-6,0
ONEWEB-0586,2022-166M,2026-07-18T20:11:27.102624,13.21823699,.00019155,87.9230,237.6956,97.6025,262.5326,0,U,54653,999,17570,-.1828711E-4,.5E-7,0
ONEWEB-0587,2022-166N,2026-07-18T20:26:00.271392,13.21825737,.00023746,87.9238,237.6700,97.8299,262.3105,0,U,54654,999,17586,.83673194E-4,.48E-6,0
ONEWEB-0589,2022-166P,2026-07-18T20:06:37.480320,13.21825818,.00013403,87.9229,237.6809,81.2447,278.8839,0,U,54655,999,17572,.21253972E-4,.22E-6,0
ONEWEB-0590,2022-166Q,2026-07-18T20:42:44.061408,13.21826140,.0002216,87.9240,237.6692,84.6405,275.4981,0,U,54656,999,17571,-.10827744E-3,-.32E-6,0
ONEWEB-0591,2022-166R,2026-07-18T02:49:51.032064,13.21824221,.00020622,87.9230,237.8292,92.8463,267.2907,0,U,54657,999,17564,.18571562E-3,.9E-6,0
ONEWEB-0592,2022-166S,2026-07-18T11:59:43.905408,13.21823158,.00020741,87.9241,237.7347,95.8114,264.3257,0,U,54658,999,17557,-.18142233E-3,-.62E-6,0
ONEWEB-0593,2022-166T,2026-07-18T19:47:14.081856,13.21825843,.00019721,87.9232,237.6791,97.0981,263.0377,0,U,54659,999,17572,-.10878368E-3,-.32E-6,0
ONEWEB-0594,2022-166U,2026-07-18T13:00:17.337312,13.21824491,.0002268,87.9229,237.7511,100.2748,259.8642,0,U,54660,999,17570,.17779E-4,.2E-6,0
ONEWEB-0595,2022-166V,2026-07-18T16:04:23.717280,13.21825561,.00023479,87.9238,237.7091,94.7014,265.4389,0,U,54661,999,17569,-.15263975E-3,-.5E-6,0
ONEWEB-0596,2022-166W,2026-07-18T20:55:03.376704,13.21812211,.00022489,87.9226,237.6777,97.1751,262.9639,0,U,54662,999,17572,.50354037E-2,.2093E-4,0
